XCUBE-1                 
1 62400U 24247Z   26068.48297321  .00009773  00000+0  36224-3 0  9994
2 62400  44.9938 117.7807 0005235 331.1499  28.9094 15.27910558 67702
STARLINK-35347          
1 65907U 25224AB  26068.08212463  .00014707  00000+0  50774-3 0  9994
2 65907  53.1589  13.9958 0000964  95.9175 264.1936 15.30197663 24761
