[{"OBJECT_NAME":"XCUBE-1","OBJECT_ID":"2024-247Z","EPOCH":"2026-03-09T11:35:28.885344","MEAN_MOTION":15.27910558,"ECCENTRICITY":0.00052355,"INCLINATION":44.9938,"RA_OF_ASC_NODE":117.7807,"ARG_OF_PERICENTER":331.1499,"MEAN_ANOMALY":28.9094,"EPHEMERIS_TYPE":0,"CLASSIFICATION_TYPE":"U","NORAD_CAT_ID":62400,"ELEMENT_SET_NO":999,"REV_AT_EPOCH":6770,"BSTAR":0.00036224252,"MEAN_MOTION_DOT":9.773e-5,"MEAN_MOTION_DDOT":0},{"OBJECT_NAME":"STARLINK-35347","OBJECT_ID":"2025-224AB","EPOCH":"2026-03-09T01:58:15.568032","MEAN_MOTION":15.30197663,"ECCENTRICITY":9.64e-5,"INCLINATION":53.1589,"RA_OF_ASC_NODE":13.9958,"ARG_OF_PERICENTER":95.9175,"MEAN_ANOMALY":264.1936,"EPHEMERIS_TYPE":0,"CLASSIFICATION_TYPE":"U","NORAD_CAT_ID":65907,"ELEMENT_SET_NO":999,"REV_AT_EPOCH":2476,"BSTAR":0.00050773848,"MEAN_MOTION_DOT":0.00014707,"MEAN_MOTION_DDOT":0}]
